OBJECT_NAME,OBJECT_ID,EPOCH,MEAN_MOTION,ECCENTRICITY,INCLINATION,RA_OF_ASC_NODE,ARG_OF_PERICENTER,MEAN_ANOMALY,EPHEMERIS_TYPE,CLASSIFICATION_TYPE,NORAD_CAT_ID,ELEMENT_SET_NO,REV_AT_EPOCH,BSTAR,MEAN_MOTION_DOT,MEAN_MOTION_DDOT
QIANFAN-175,2026-124L,2026-06-19T20:10:58.867104,14.21339723,.0003588,88.9983,1.7320,161.7910,198.3410,0,U,69392,999,219,.32515E-4,.85E-6,0
QIANFAN-176,2026-124M,2026-06-19T20:07:21.641088,14.21841054,.0002531,88.9983,1.7316,163.3823,196.7451,0,U,69393,999,219,.32597E-4,.86E-6,0
QIANFAN-177,2026-124N,2026-06-19T20:02:23.816832,14.22730446,.0003818,88.9983,1.7310,138.8576,221.2904,0,U,69394,999,219,.23277E-4,.67E-6,0
QIANFAN-178,2026-124P,2026-06-19T20:04:31.490976,14.22274405,.0003042,88.9983,1.7312,147.4815,212.6565,0,U,69395,999,219,.11284E-3,.265E-5,0
QIANFAN-179,2026-124Q,2026-06-19T19:59:23.961408,14.23097092,.0003072,88.9983,1.7307,143.0682,217.0722,0,U,69396,999,219,.23524E-4,.68E-6,0
QIANFAN-180,2026-124R,2026-06-19T19:57:28.747008,14.23618630,.0003262,88.9983,1.7306,155.7989,204.3357,0,U,69397,999,219,.23135E-4,.67E-6,0
QIANFAN-181,2026-124S,2026-06-19T19:08:28.573152,14.16649366,.0002628,88.9983,1.7441,109.8274,250.3198,0,U,69398,999,218,.29236E-4,.73E-6,0
QIANFAN-182,2026-124T,2026-06-19T18:49:51.644928,14.18738457,.0002574,88.9984,1.7422,133.8997,226.2405,0,U,69399,999,218,.30079E-4,.77E-6,0
QIANFAN-183,2026-125A,2026-06-19T17:48:44.517024,14.13967662,.0015101,88.9922,280.1615,180.2570,179.8612,0,U,69401,999,206,-.12246E+1,-.2144644E-1,0
QIANFAN-184,2026-125B,2026-06-19T17:37:57.038880,14.13282040,.0017336,88.9939,280.1598,157.7136,202.4808,0,U,69402,999,206,-.11283E+1,-.1965231E-1,0
QIANFAN-185,2026-125C,2026-06-19T19:20:32.898912,14.11744531,.002062,88.9950,280.1526,152.1571,208.0723,0,U,69403,999,207,-.10873E+1,-.1850064E-1,0
QIANFAN-186,2026-125D,2026-06-19T17:32:24.622656,14.14978163,.0016523,88.9911,280.1598,183.2578,176.8504,0,U,69404,999,206,-.12051E+1,-.2150127E-1,0
QIANFAN-187,2026-125E,2026-06-19T17:27:48.184992,14.16025362,.0017685,88.9950,280.1573,186.7116,173.3838,0,U,69405,999,206,-.11814E+1,-.2149587E-1,0
QIANFAN-188,2026-125F,2026-06-19T17:21:12.880800,14.16843723,.0017126,88.9957,280.1569,188.2634,171.8275,0,U,69406,999,206,-.11463E+1,-.2119869E-1,0
QIANFAN-189,2026-125G,2026-06-19T17:19:35.025024,14.14417547,.001498,88.9947,280.1586,167.6028,192.5531,0,U,69407,999,206,-.10384E+1,-.1853945E-1,0
QIANFAN-190,2026-125H,2026-06-19T17:19:12.790848,14.16775249,.0015731,88.9944,280.1586,190.7361,169.3493,0,U,69408,999,206,-.1146E+1,-.2116374E-1,0
QIANFAN-191,2026-125J,2026-06-19T17:10:22.344096,14.15407399,.0012443,88.9947,280.1576,170.0084,190.1353,0,U,69409,999,206,-.99942E+0,-.1819046E-1,0
QIANFAN-192,2026-125K,2026-06-19T18:48:12.849120,14.16298863,.0013764,88.9948,280.1495,179.7518,180.3679,0,U,69410,999,207,-.99503E+0,-.1840096E-1,0
QIANFAN-193,2026-125L,2026-06-19T18:43:03.040320,14.16627290,.0013061,88.9948,280.1488,179.8077,180.3119,0,U,69411,999,207,-.97278E+0,-.1811731E-1,0
QIANFAN-194,2026-125M,2026-06-19T18:40:34.353696,14.16835506,.0012364,88.9947,280.1486,186.3713,173.7320,0,U,69412,999,206,-.96675E+0,-.1787424E-1,0
QIANFAN-195,2026-125N,2026-06-19T18:39:45.471168,14.18838348,.0014843,88.9935,280.1519,185.9073,174.1944,0,U,69413,999,207,-.10715E+1,-.206044E-1,0
QIANFAN-196,2026-125P,2026-06-19T18:35:56.969952,14.18404306,.0011421,88.9945,280.1477,178.1140,182.0094,0,U,69414,999,207,-.10177E+1,-.1948606E-1,0
QIANFAN-197,2026-125Q,2026-06-19T18:34:12.311040,14.18379903,.0009001,88.9949,280.1479,172.9343,187.1975,0,U,69415,999,206,-.10034E+1,-.1921915E-1,0
QIANFAN-198,2026-125R,2026-06-19T18:35:06.599616,14.17990071,.0009053,88.9948,280.1483,170.9232,189.2123,0,U,69416,999,207,-.9969E+0,-.1897356E-1,0
QIANFAN-199,2026-125S,2026-06-19T16:49:40.383840,14.19916004,.0013367,88.9945,280.1555,166.6596,193.4950,0,U,69417,999,206,-.97674E+0,-.1926016E-1,0
QIANFAN-200,2026-125T,2026-06-19T20:35:36.023712,14.15539357,.0014564,88.9946,280.1421,173.5980,186.5397,0,U,69418,999,208,-.10402E+1,-.1893052E-1,0
STARLINK-37537,2026-126A,2026-06-19T14:06:14.045184,15.75227882,.00023698,97.2828,30.6820,107.9608,252.1916,0,U,69420,999,312,.98886475E-3,.150244E-2,0
STARLINK-37585,2026-126B,2026-06-19T13:50:51.488448,15.76100563,.00028007,97.2834,30.6957,121.1564,238.9977,0,U,69421,999,312,.97485059E-3,.153908E-2,0
