QIANFAN-175             
1 69392U 26124L   26170.84095911  .00000085  00000+0  32515-4 0  9999
2 69392  88.9983   1.7320 0003588 161.7910 198.3410 14.21339723  2191
QIANFAN-176             
1 69393U 26124M   26170.83844492  .00000086  00000+0  32597-4 0  9996
2 69393  88.9983   1.7316 0002531 163.3823 196.7451 14.21841054  2197
QIANFAN-177             
1 69394U 26124N   26170.83499788  .00000067  00000+0  23277-4 0  9995
2 69394  88.9983   1.7310 0003818 138.8576 221.2904 14.22730446  2193
QIANFAN-178             
1 69395U 26124P   26170.83647559  .00000265  00000+0  11284-3 0  9991
2 69395  88.9983   1.7312 0003042 147.4815 212.6565 14.22274405  2192
QIANFAN-179             
1 69396U 26124Q   26170.83291622  .00000068  00000+0  23524-4 0  9990
2 69396  88.9983   1.7307 0003072 143.0682 217.0722 14.23097092  2194
QIANFAN-180             
1 69397U 26124R   26170.83158272  .00000067  00000+0  23135-4 0  9991
2 69397  88.9983   1.7306 0003262 155.7989 204.3357 14.23618630  2195
QIANFAN-181             
1 69398U 26124S   26170.79755293  .00000073  00000+0  29236-4 0  9998
2 69398  88.9983   1.7441 0002628 109.8274 250.3198 14.16649366  2183
QIANFAN-182             
1 69399U 26124T   26170.78462552  .00000077  00000+0  30079-4 0  9992
2 69399  88.9984   1.7422 0002574 133.8997 226.2405 14.18738457  2188
QIANFAN-183             
1 69401U 26125A   26170.74218191 -.02144644  00000+0 -12246+1 0  9996
2 69401  88.9922 280.1615 0015101 180.2570 179.8612 14.13967662  2061
QIANFAN-184             
1 69402U 26125B   26170.73468795 -.01965231  00000+0 -11283+1 0  9995
2 69402  88.9939 280.1598 0017336 157.7136 202.4808 14.13282040  2069
QIANFAN-185             
1 69403U 26125C   26170.80593633 -.01850064  00000+0 -10873+1 0  9995
2 69403  88.9950 280.1526 0020620 152.1571 208.0723 14.11744531  2071
QIANFAN-186             
1 69404U 26125D   26170.73084054 -.02150127  00000+0 -12051+1 0  9994
2 69404  88.9911 280.1598 0016523 183.2578 176.8504 14.14978163  2068
QIANFAN-187             
1 69405U 26125E   26170.72764103 -.02149587  00000+0 -11814+1 0  9998
2 69405  88.9950 280.1573 0017685 186.7116 173.3838 14.16025362  2069
QIANFAN-188             
1 69406U 26125F   26170.72306575 -.02119869  00000+0 -11463+1 0  9994
2 69406  88.9957 280.1569 0017126 188.2634 171.8275 14.16843723  2061
QIANFAN-189             
1 69407U 26125G   26170.72193316 -.01853945  00000+0 -10384+1 0  9992
2 69407  88.9947 280.1586 0014980 167.6028 192.5531 14.14417547  2067
QIANFAN-190             
1 69408U 26125H   26170.72167582 -.02116374  00000+0 -11460+1 0  9994
2 69408  88.9944 280.1586 0015731 190.7361 169.3493 14.16775249  2064
QIANFAN-191             
1 69409U 26125J   26170.71553639 -.01819046  00000+0 -99942+0 0  9991
2 69409  88.9947 280.1576 0012443 170.0084 190.1353 14.15407399  2061
QIANFAN-192             
1 69410U 26125K   26170.78348205 -.01840096  00000+0 -99503+0 0  9993
2 69410  88.9948 280.1495 0013764 179.7518 180.3679 14.16298863  2077
QIANFAN-193             
1 69411U 26125L   26170.77989630 -.01811731  00000+0 -97278+0 0  9997
2 69411  88.9948 280.1488 0013061 179.8077 180.3119 14.16627290  2070
QIANFAN-194             
1 69412U 26125M   26170.77817539 -.01787424  00000+0 -96675+0 0  9997
2 69412  88.9947 280.1486 0012364 186.3713 173.7320 14.16835506  2063
QIANFAN-195             
1 69413U 26125N   26170.77760962 -.02060440  00000+0 -10715+1 0  9990
2 69413  88.9935 280.1519 0014843 185.9073 174.1944 14.18838348  2073
QIANFAN-196             
1 69414U 26125P   26170.77496493 -.01948606  00000+0 -10177+1 0  9996
2 69414  88.9945 280.1477 0011421 178.1140 182.0094 14.18404306  2073
QIANFAN-197             
1 69415U 26125Q   26170.77375360 -.01921915  00000+0 -10034+1 0  9992
2 69415  88.9949 280.1479 0009001 172.9343 187.1975 14.18379903  2065
QIANFAN-198             
1 69416U 26125R   26170.77438194 -.01897356  00000+0 -99690+0 0  9993
2 69416  88.9948 280.1483 0009053 170.9232 189.2123 14.17990071  2075
QIANFAN-199             
1 69417U 26125S   26170.70116185 -.01926016  00000+0 -97674+0 0  9996
2 69417  88.9945 280.1555 0013367 166.6596 193.4950 14.19916004  2061
QIANFAN-200             
1 69418U 26125T   26170.85805583 -.01893052  00000+0 -10402+1 0  9998
2 69418  88.9946 280.1421 0014564 173.5980 186.5397 14.15539357  2087
STARLINK-37537          
1 69420U 26126A   26170.58766256  .00150244  00000+0  98886-3 0  9996
2 69420  97.2828  30.6820 0002369 107.9608 252.1916 15.75227882  3128
STARLINK-37585          
1 69421U 26126B   26170.57698482  .00153908  00000+0  97485-3 0  9995
2 69421  97.2834  30.6957 0002800 121.1564 238.9977 15.76100563  3122
